*******************************************************************************
Ephemeris / WWW_USER Mon Jul 15 19:25:32 2024 Pasadena, USA      / Horizons    
*******************************************************************************
Target body name: (2018 RA1)                      {source: JPL#6}
Center body name: Earth (399)                     {source: DE441}
Center-site name: Gemini South Obs., Cerro Pachon
*******************************************************************************
Start time      : A.D. 2019-Jan-29 23:52:00.0000 UT      
Stop  time      : A.D. 2019-Jan-30 10:00:00.0000 UT      
Step-size       : 1 minutes
*******************************************************************************
Target pole/equ : undefined
Target radii    : undefined                                                    
Center geodetic : 289.2634, -30.2406227, 2.71233  {E-lon(deg),Lat(deg),Alt(km)}
Center cylindric: 289.2634,5517.21435,-3194.81213 {E-lon(deg),Dxy(km),Dz(km)}
Center pole/equ : ITRF93                          {East-longitude positive}
Center radii    : 6378.137, 6378.137, 6356.752 km {Equator_a, b, pole_c}       
Target primary  : Sun
Vis. interferer : MOON (R_eq= 1737.400) km        {source: DE441}
Rel. light bend : Sun                             {source: DE441}
Rel. lght bnd GM: 1.3271E+11 km^3/s^2                                          
Small-body perts: Yes                             {source: SB441-N16}
Atmos refraction: NO (AIRLESS)
RA format       : HMS
Time format     : CAL 
Calendar mode   : Mixed Julian/Gregorian
RTS-only print  : NO       
EOP file        : eop.240715.p241008                                           
EOP coverage    : DATA-BASED 1962-JAN-20 TO 2024-JUL-15. PREDICTS-> 2024-OCT-07
Units conversion: 1 au= 149597870.700 km, c= 299792.458 km/s, 1 day= 86400.0 s 
Table cut-offs 1: Elevation (-90.0deg=NO ),Airmass (>38.000=NO), Daylight (YES)
Table cut-offs 2: Solar elongation (  0.0,180.0=NO ),Local Hour Angle( 0.0=NO )
Table cut-offs 3: RA/DEC angular rate (     0.0=NO )                           
*******************************************************************************
Initial IAU76/J2000 heliocentric ecliptic osculating elements (au, days, deg.):
  EPOCH=  2458369.5 ! 2018-Sep-08.00 (TDB)         Residual RMS= .21275        
   EC= .3232115344739424   QR= .7703453101153647   TP= 2458436.6763547547      
   OM= 166.2054176892707   W=  269.7217787981747   IN= 8.763099478405824       
  Equivalent ICRF heliocentric cartesian coordinates (au, au/d):
   X= 9.899686155013647E-01  Y=-2.468208982240139E-01  Z=-1.030323866474361E-01
  VX=-9.411283005844916E-04 VY= 1.717513364149167E-02 VZ= 4.613440841260365E-03
Asteroid physical parameters (km, seconds, rotational period in hours):        
   GM= n.a.                RAD= n.a.               ROTPER= n.a.                
   H= 26.4                 G= .150                 B-V= n.a.                   
                           ALBEDO= n.a.            STYP= n.a.                  
*******************************************************************************
 Date__(UT)__HR:MN     R.A._________(ICRF)_________DEC
******************************************************
$$SOE
 2019-Jan-30 08:04  m  15 37 15.382459 -17 27 56.50773
 2019-Jan-30 08:05  m  15 37 15.485846 -17 27 56.41702
 2019-Jan-30 08:06  m  15 37 15.589223 -17 27 56.32626
 2019-Jan-30 08:07  m  15 37 15.692588 -17 27 56.23548
 2019-Jan-30 08:08  m  15 37 15.795942 -17 27 56.14465
 2019-Jan-30 08:09  m  15 37 15.899286 -17 27 56.05379
 2019-Jan-30 08:10  m  15 37 16.002619 -17 27 55.96288
 2019-Jan-30 08:11  m  15 37 16.105941 -17 27 55.87194
 2019-Jan-30 08:12  m  15 37 16.209253 -17 27 55.78097
 2019-Jan-30 08:13  m  15 37 16.312553 -17 27 55.68995
 2019-Jan-30 08:14  m  15 37 16.415843 -17 27 55.59889
 2019-Jan-30 08:15  m  15 37 16.519123 -17 27 55.50780
 2019-Jan-30 08:16  m  15 37 16.622392 -17 27 55.41667
 2019-Jan-30 08:17  m  15 37 16.725650 -17 27 55.32549
 2019-Jan-30 08:18  m  15 37 16.828898 -17 27 55.23428
 2019-Jan-30 08:19  m  15 37 16.932136 -17 27 55.14303
 2019-Jan-30 08:20  m  15 37 17.035363 -17 27 55.05174
 2019-Jan-30 08:21  m  15 37 17.138579 -17 27 54.96041
 2019-Jan-30 08:22  m  15 37 17.241786 -17 27 54.86903
 2019-Jan-30 08:23  m  15 37 17.344982 -17 27 54.77762
 2019-Jan-30 08:24  m  15 37 17.448167 -17 27 54.68617
 2019-Jan-30 08:25  m  15 37 17.551343 -17 27 54.59468
 2019-Jan-30 08:26  m  15 37 17.654508 -17 27 54.50314
 2019-Jan-30 08:27  m  15 37 17.757663 -17 27 54.41157
 2019-Jan-30 08:28  m  15 37 17.860808 -17 27 54.31995
 2019-Jan-30 08:29  m  15 37 17.963942 -17 27 54.22829
 2019-Jan-30 08:30  m  15 37 18.067067 -17 27 54.13659
 2019-Jan-30 08:31  m  15 37 18.170181 -17 27 54.04485
 2019-Jan-30 08:32  m  15 37 18.273286 -17 27 53.95307
 2019-Jan-30 08:33  m  15 37 18.376380 -17 27 53.86124
 2019-Jan-30 08:34  m  15 37 18.479465 -17 27 53.76937
 2019-Jan-30 08:35  m  15 37 18.582540 -17 27 53.67746
 2019-Jan-30 08:36  m  15 37 18.685605 -17 27 53.58551
 2019-Jan-30 08:37  m  15 37 18.788660 -17 27 53.49351
 2019-Jan-30 08:38  m  15 37 18.891705 -17 27 53.40147
 2019-Jan-30 08:39  m  15 37 18.994741 -17 27 53.30939
 2019-Jan-30 08:40 Am  15 37 19.097766 -17 27 53.21727
 2019-Jan-30 08:41 Am  15 37 19.200782 -17 27 53.12510
 2019-Jan-30 08:42 Am  15 37 19.303789 -17 27 53.03288
 2019-Jan-30 08:43 Am  15 37 19.406786 -17 27 52.94063
 2019-Jan-30 08:44 Am  15 37 19.509773 -17 27 52.84833
 2019-Jan-30 08:45 Am  15 37 19.612751 -17 27 52.75598
 2019-Jan-30 08:46 Am  15 37 19.715719 -17 27 52.66359
 2019-Jan-30 08:47 Am  15 37 19.818678 -17 27 52.57116
 2019-Jan-30 08:48 Am  15 37 19.921628 -17 27 52.47868
 2019-Jan-30 08:49 Am  15 37 20.024568 -17 27 52.38616
 2019-Jan-30 08:50 Am  15 37 20.127499 -17 27 52.29359
 2019-Jan-30 08:51 Am  15 37 20.230420 -17 27 52.20098
 2019-Jan-30 08:52 Am  15 37 20.333333 -17 27 52.10832
 2019-Jan-30 08:53 Am  15 37 20.436236 -17 27 52.01561
 2019-Jan-30 08:54 Am  15 37 20.539130 -17 27 51.92286
 2019-Jan-30 08:55 Am  15 37 20.642014 -17 27 51.83007
 2019-Jan-30 08:56 Am  15 37 20.744890 -17 27 51.73722
 2019-Jan-30 08:57 Am  15 37 20.847757 -17 27 51.64434
 2019-Jan-30 08:58 Am  15 37 20.950614 -17 27 51.55140
 2019-Jan-30 08:59 Am  15 37 21.053463 -17 27 51.45842
 2019-Jan-30 09:00 Am  15 37 21.156303 -17 27 51.36539
 2019-Jan-30 09:01 Am  15 37 21.259134 -17 27 51.27232
 2019-Jan-30 09:02 Am  15 37 21.361956 -17 27 51.17920
 2019-Jan-30 09:03 Am  15 37 21.464769 -17 27 51.08603
 2019-Jan-30 09:04 Am  15 37 21.567574 -17 27 50.99281
 2019-Jan-30 09:05 Am  15 37 21.670370 -17 27 50.89955
 2019-Jan-30 09:06 Am  15 37 21.773157 -17 27 50.80624
 2019-Jan-30 09:07 Am  15 37 21.875936 -17 27 50.71288
 2019-Jan-30 09:08 Am  15 37 21.978705 -17 27 50.61948
 2019-Jan-30 09:09 Am  15 37 22.081467 -17 27 50.52602
 2019-Jan-30 09:10 Am  15 37 22.184220 -17 27 50.43252
 2019-Jan-30 09:11 Am  15 37 22.286964 -17 27 50.33897
 2019-Jan-30 09:12 Am  15 37 22.389700 -17 27 50.24537
 2019-Jan-30 09:13 Nm  15 37 22.492428 -17 27 50.15173
 2019-Jan-30 09:14 Nm  15 37 22.595148 -17 27 50.05803
 2019-Jan-30 09:15 Nm  15 37 22.697859 -17 27 49.96428
 2019-Jan-30 09:16 Nm  15 37 22.800562 -17 27 49.87049
 2019-Jan-30 09:17 Nm  15 37 22.903256 -17 27 49.77665
 2019-Jan-30 09:18 Nm  15 37 23.005943 -17 27 49.68276
 2019-Jan-30 09:19 Nm  15 37 23.108621 -17 27 49.58881
 2019-Jan-30 09:20 Nm  15 37 23.211292 -17 27 49.49482
 2019-Jan-30 09:21 Nm  15 37 23.313954 -17 27 49.40078
 2019-Jan-30 09:22 Nm  15 37 23.416608 -17 27 49.30669
 2019-Jan-30 09:23 Nm  15 37 23.519255 -17 27 49.21255
 2019-Jan-30 09:24 Nm  15 37 23.621893 -17 27 49.11836
 2019-Jan-30 09:25 Nm  15 37 23.724524 -17 27 49.02412
 2019-Jan-30 09:26 Nm  15 37 23.827147 -17 27 48.92983
 2019-Jan-30 09:27 Nm  15 37 23.929762 -17 27 48.83548
 2019-Jan-30 09:28 Nm  15 37 24.032370 -17 27 48.74109
 2019-Jan-30 09:29 Nm  15 37 24.134970 -17 27 48.64665
 2019-Jan-30 09:30 Nm  15 37 24.237562 -17 27 48.55215
 2019-Jan-30 09:31 Nm  15 37 24.340146 -17 27 48.45761
 2019-Jan-30 09:32 Nm  15 37 24.442724 -17 27 48.36301
 2019-Jan-30 09:33 Nm  15 37 24.545293 -17 27 48.26836
 2019-Jan-30 09:34 Nm  15 37 24.647856 -17 27 48.17366
 2019-Jan-30 09:35 Nm  15 37 24.750410 -17 27 48.07891
 2019-Jan-30 09:36 Nm  15 37 24.852958 -17 27 47.98411
 2019-Jan-30 09:37 Nm  15 37 24.955498 -17 27 47.88926
 2019-Jan-30 09:38 Nm  15 37 25.058031 -17 27 47.79435
 2019-Jan-30 09:39 Nm  15 37 25.160557 -17 27 47.69939
 2019-Jan-30 09:40 Nm  15 37 25.263076 -17 27 47.60438
 2019-Jan-30 09:41 Nm  15 37 25.365587 -17 27 47.50932
 2019-Jan-30 09:42 Nm  15 37 25.468092 -17 27 47.41420
 2019-Jan-30 09:43 Nm  15 37 25.570589 -17 27 47.31904
 2019-Jan-30 09:44 Cm  15 37 25.673080 -17 27 47.22382
 2019-Jan-30 09:45 Cm  15 37 25.775564 -17 27 47.12854
 2019-Jan-30 09:46 Cm  15 37 25.878040 -17 27 47.03322
 2019-Jan-30 09:47 Cm  15 37 25.980510 -17 27 46.93784
 2019-Jan-30 09:48 Cm  15 37 26.082974 -17 27 46.84241
 2019-Jan-30 09:49 Cm  15 37 26.185430 -17 27 46.74692
 2019-Jan-30 09:50 Cm  15 37 26.287880 -17 27 46.65138
 2019-Jan-30 09:51 Cm  15 37 26.390323 -17 27 46.55579
 2019-Jan-30 09:52 Cm  15 37 26.492760 -17 27 46.46014
 2019-Jan-30 09:53 Cm  15 37 26.595190 -17 27 46.36444
 2019-Jan-30 09:54 Cm  15 37 26.697613 -17 27 46.26869
 2019-Jan-30 09:55 Cm  15 37 26.800031 -17 27 46.17288
 2019-Jan-30 09:56 Cm  15 37 26.902441 -17 27 46.07702
 2019-Jan-30 09:57 Cm  15 37 27.004846 -17 27 45.98111
 2019-Jan-30 09:58 Cm  15 37 27.107244 -17 27 45.88514
 2019-Jan-30 09:59 Cm  15 37 27.209636 -17 27 45.78911
 2019-Jan-30 10:00 Cm  15 37 27.312022 -17 27 45.69304
